NORAD_CAT_ID,OBJECT_NAME,OBJECT_TYPE,EPOCH,MEAN_MOTION,ECCENTRICITY,INCLINATION,RA_OF_ASC_NODE,ARG_OF_PERICENTER,MEAN_ANOMALY,BSTAR,MEAN_MOTION_DOT,MEAN_MOTION_DDOT,TLE_LINE0,TLE_LINE1,TLE_LINE2,SEMIMAJOR_AXIS,PERIOD,APOGEE,PERIGEE,DECAYED
52294.0,STARLINK-3777,PAYLOAD,2022-07-07 22:00:00,15.24183433,0.0001317,53.2174,358.6043,67.8928,26.9674,-0.03123,-0.00718804,0.0,0 STARLINK-3777,1 52294U 22041AK  22188.91667824 -.00718804  00000-0 -31230-1 0  9995,2 52294  53.2174 358.6043 0001317  67.8928  26.9674 15.24183433 13313,6871.376,94.477,494.145,492.336,0.0
52294.0,STARLINK-3777,PAYLOAD,2022-07-08 14:00:01,15.23166374,0.0001382,53.2177,355.5419,72.8218,80.8746,-0.032439,-0.00723905,0.0,0 STARLINK-3777,1 52294U 22041AK  22189.58334491 -.00723905  00000-0 -32439-1 0  9990,2 52294  53.2177 355.5419 0001382  72.8218  80.8746 15.23166374  1308,6874.434,94.54,497.249,495.349,0.0
52294.0,STARLINK-3777,PAYLOAD,2022-07-08 22:00:01,15.22652337,0.0001405,53.2174,354.0144,70.2044,112.0549,-0.032575,-0.00716429,0.0,0 STARLINK-3777,1 52294U 22041AK  22189.91668981 -.00716429  00000-0 -32575-1 0  9995,2 52294  53.2174 354.0144 0001405  70.2044 112.0549 15.22652337  1306,6875.981,94.572,498.812,496.88,0.0
52294.0,STARLINK-3777,PAYLOAD,2022-07-09 14:00:01,15.21635528,0.0001372,53.2176,350.9594,78.4497,158.9053,-0.033849,-0.00721949,0.0,0 STARLINK-3777,1 52294U 22041AK  22190.58334491 -.00721949  00000-0 -33849-1 0  9994,2 52294  53.2176 350.9594 0001372  78.4497 158.9053 15.21635528  1308,6879.044,94.635,501.853,499.965,0.0
52294.0,STARLINK-3777,PAYLOAD,2022-07-09 20:00:01,15.212528099999998,0.0001375,53.2176,349.8165,86.7386,80.6687,-0.03421,-0.00721485,0.0,0 STARLINK-3777,1 52294U 22041AK  22190.83334491 -.00721485  00000-0 -34210-1 0  9990,2 52294  53.2176 349.8165 0001375  86.7386  80.6687 15.21252810  1304,6880.198,94.659,503.009,501.117,0.0
52294.0,STARLINK-3777,PAYLOAD,2022-07-10 14:00:01,15.20106015,0.000128,53.2176,346.3874,76.7979,238.7002,-0.035425,-0.00722281,0.0,0 STARLINK-3777,1 52294U 22041AK  22191.58334491 -.00722281  00000-0 -35425-1 0  9997,2 52294  53.2176 346.3874 0001280  76.7979 238.7002 15.20106015  1306,6883.658,94.73,506.404,504.641,0.0
52294.0,STARLINK-3777,PAYLOAD,2022-07-10 22:00:00,15.19595439,0.0001214,53.2172,344.8668,98.2826,242.0372,-0.035864,-0.00720512,0.0,0 STARLINK-3777,1 52294U 22041AK  22191.91667824 -.00720512  00000-0 -35864-1 0  9995,2 52294  53.2172 344.8668 0001214  98.2826 242.0372 15.19595439 13764,6885.199000000001,94.762,507.9,506.229,0.0
52294.0,STARLINK-3777,PAYLOAD,2022-07-11 14:00:01,15.18576653,0.0001274,53.2177,341.8263,71.4094,316.7169,-0.037097,-0.00723302,0.0,0 STARLINK-3777,1 52294U 22041AK  22192.58334491 -.00723302  00000-0 -37097-1 0  9990,2 52294  53.2177 341.8263 0001274  71.4094 316.7169 15.18576653  1309,6888.278,94.826,511.021,509.266,0.0
52294.0,STARLINK-3777,PAYLOAD,2022-07-11 22:00:00,15.18065689,0.0001198,53.2172,340.309,94.1247,316.9851,-0.037506,-0.0072069999999999,0.0,0 STARLINK-3777,1 52294U 22041AK  22192.91667824 -.00720700  00000-0 -37506-1 0  9990,2 52294  53.2172 340.3090 0001198  94.1247 316.9851 15.18065689 13915,6889.824000000001,94.858,512.514,510.864,0.0
52294.0,STARLINK-3777,PAYLOAD,2022-07-12 14:00:01,15.17046233,0.0001351,53.2175,337.2759,70.0599,25.1798,-0.038744,-0.00722765,0.0,0 STARLINK-3777,1 52294U 22041AK  22193.58334491 -.00722765  00000-0 -38744-1 0  9993,2 52294  53.2175 337.2759 0001351  70.0599  25.1798 15.17046233  1301,6892.91,94.921,515.707,513.844,0.0
52294.0,STARLINK-3777,PAYLOAD,2022-07-12 22:00:00,15.165356400000002,0.0001281999999999,53.2172,335.7619,94.3922,21.9927,-0.039191,-0.007206,0.0,0 STARLINK-3777,1 52294U 22041AK  22193.91667824 -.00720600  00000-0 -39191-1 0  9992,2 52294  53.2172 335.7619 0001282  94.3922  21.9927 15.16535640 14078,6894.456999999999,94.953,517.206,515.439,0.0
52294.0,STARLINK-3777,PAYLOAD,2022-07-13 14:00:01,15.15515176,0.0001394,53.2175,332.7361,80.3451,76.4933,-0.040373,-0.00720952,0.0,0 STARLINK-3777,1 52294U 22041AK  22194.58334491 -.00720952  00000-0 -40373-1 0  9991,2 52294  53.2175 332.7361 0001394  80.3451  76.4933 15.15515176  1303,6897.552,95.017,520.378,518.455,0.0
52294.0,STARLINK-3777,PAYLOAD,2022-07-13 22:00:00,15.15006312,0.0001351999999999,53.2172,331.2255,91.1445,85.0002,-0.041022,-0.00721919,0.0,0 STARLINK-3777,1 52294U 22041AK  22194.91667824 -.00721919  00000-0 -41022-1 0  9993,2 52294  53.2172 331.2255 0001352  91.1445  85.0002 15.15006312 14228,6899.096,95.049,521.894,520.029,0.0
52294.0,STARLINK-3777,PAYLOAD,2022-07-14 14:00:01,15.13984375,0.0001409999999999,53.2176,328.207,82.7403,130.1814,-0.04207,-0.00719387,0.0,0 STARLINK-3777,1 52294U 22041AK  22195.58334491 -.00719387  00000-0 -42070-1 0  9998,2 52294  53.2176 328.2070 0001410  82.7403 130.1814 15.13984375  1308,6902.201,95.113,525.039,523.092,0.0
52294.0,STARLINK-3777,PAYLOAD,2022-07-14 22:00:00,15.13477479,0.0001381,53.2173,326.6998,100.7428,129.6463,-0.042977,-0.00724097,0.0,0 STARLINK-3777,1 52294U 22041AK  22195.91667824 -.00724097  00000-0 -42977-1 0  9994,2 52294  53.2173 326.6998 0001381 100.7428 129.6463 15.13477479  1306,6903.7419999999975,95.145,526.56,524.653,0.0
52294.0,STARLINK-3777,PAYLOAD,2022-07-15 06:00:00,15.12965661,0.0001365,53.2173,325.192,96.8062,150.4408,-0.043457,-0.0072186,0.0,0 STARLINK-3777,1 52294U 22041AK  22196.25001157 -.00721860  00000-0 -43457-1 0  9992,2 52294  53.2173 325.1920 0001365  96.8062 150.4408 15.12965661 14428,6905.299,95.177,528.106,526.221,0.0
52294.0,STARLINK-3777,PAYLOAD,2022-07-15 14:00:01,15.12454425,0.0001378,53.2175,323.6887,84.9879,178.5015,-0.043906,-0.00719115,0.0,0 STARLINK-3777,1 52294U 22041AK  22196.58334491 -.00719115  00000-0 -43906-1 0  9997,2 52294  53.2175 323.6887 0001378  84.9879 178.5015 15.12454425  1302,6906.855,95.209,529.6709999999998,527.768,0.0
52294.0,STARLINK-3777,PAYLOAD,2022-07-15 22:00:00,15.11948345,0.000134,53.2173,322.1848,103.4809,175.6376,-0.04497,-0.00725683,0.0,0 STARLINK-3777,1 52294U 22041AK  22196.91667824 -.00725683  00000-0 -44970-1 0  9992,2 52294  53.2173 322.1848 0001340 103.4809 175.6376 15.11948345  1306,6908.396,95.241,531.186,529.335,0.0
52294.0,STARLINK-3777,PAYLOAD,2022-07-16 14:00:01,15.10925141,0.0001318,53.2174,319.1809,84.2913,224.2507,-0.045884,-0.00719997,0.0,0 STARLINK-3777,1 52294U 22041AK  22197.58334491 -.00719997  00000-0 -45884-1 0  9993,2 52294  53.2174 319.1809 0001318  84.2913 224.2507 15.10925141 14621,6911.514,95.306,534.29,532.4680000000002,0.0
52294.0,STARLINK-3777,PAYLOAD,2022-07-16 22:00:00,15.10418474,0.0001319,53.2173,317.6805,108.8475,213.4856,-0.046942,-0.00725867,0.0,0 STARLINK-3777,1 52294U 22041AK  22197.91667824 -.00725867  00000-0 -46942-1 0  9998,2 52294  53.2173 317.6805 0001319 108.8475 213.4856 15.10418474  1300,6913.06,95.338,535.837,534.013,0.0
52294.0,STARLINK-3777,PAYLOAD,2022-07-17 14:00:01,15.09312739,0.0001408,53.2173,314.6836,96.5536,251.5403,-0.031131,-0.00474861,0.0,0 STARLINK-3777,1 52294U 22041AK  22198.58334491 -.00474861  00000-0 -31131-1 0  9992,2 52294  53.2173 314.6836 0001408  96.5536 251.5403 15.09312739  1307,6916.436,95.408,539.275,537.327,0.0
52294.0,STARLINK-3777,PAYLOAD,2022-07-17 22:00:00,15.08901568,0.0001351,53.2172,313.1863,95.9969,264.0683,-0.0066068,-0.00104093,0.0,0 STARLINK-3777,1 52294U 22041AK  22198.91667824 -.00104093  00000-0 -66068-2 0  9993,2 52294  53.2172 313.1863 0001351  95.9969 264.0683 15.08901568 14823,6917.691999999999,95.434,540.492,538.623,0.0
52294.0,STARLINK-3777,PAYLOAD,2022-07-18 06:00:00,15.08848259,0.0001319,53.2166,311.6876,90.3156,281.3682,-0.0011663,-0.00018806,0.0,0 STARLINK-3777,1 52294U 22041AK  22199.25001157 -.00018806  00000-0 -11663-2 0  9999,2 52294  53.2166 311.6876 0001319  90.3156 281.3682 15.08848259 14877,6917.855,95.437,540.633,538.808,0.0
52294.0,STARLINK-3777,PAYLOAD,2022-07-18 14:00:01,15.08877471,0.0001264,53.2156,310.1854,80.42399999999998,302.8783,-0.00027534,-4.672e-05,0.0,0 STARLINK-3777,1 52294U 22041AK  22199.58334491 -.00004672  00000-0 -27534-3 0  9996,2 52294  53.2156 310.1854 0001264  80.4240 302.8783 15.08877471 14924,6917.766,95.435,540.505,538.756,0.0
52294.0,STARLINK-3777,PAYLOAD,2022-07-18 22:00:00,15.08921347,0.0001305,53.216,308.6886,77.0715,317.8624,-0.0097478,-0.00152495,0.0,0 STARLINK-3777,1 52294U 22041AK  22199.91667824 -.00152495  00000-0 -97478-2 0  9992,2 52294  53.2160 308.6886 0001305  77.0715 317.8624 15.08921347  1301,6917.632,95.432,540.4,538.594,0.0
52294.0,STARLINK-3777,PAYLOAD,2022-07-19 06:00:00,15.08793798,0.0001372,53.2161,307.1907,89.1118,317.4524,0.001536,0.00024211,0.0,0 STARLINK-3777,1 52294U 22041AK  22200.25001157  .00024211  00000-0  15360-2 0  9995,2 52294  53.2161 307.1907 0001372  89.1118 317.4524 15.08793798 15032,6918.022,95.44,540.836,538.937,0.0
52294.0,STARLINK-3777,PAYLOAD,2022-07-19 14:00:01,15.08799581,0.0001345,53.2161,305.6961,80.0419,338.0701,0.0030251,0.00048132,0.0,0 STARLINK-3777,1 52294U 22041AK  22200.58334491  .00048132  00000-0  30251-2 0  9995,2 52294  53.2161 305.6961 0001345  80.0419 338.0701 15.08799581  1306,6918.004,95.44,540.799,538.938,0.0
52294.0,STARLINK-3777,PAYLOAD,2022-07-19 22:00:00,15.08867166,0.0001268,53.2163,304.2023,75.859,353.8131,-0.0046813,-0.00074079,0.0,0 STARLINK-3777,1 52294U 22041AK  22200.91667824 -.00074079  00000-0 -46813-2 0  9993,2 52294  53.2163 304.2023 0001268  75.8590 353.8131 15.08867166  1305,6917.797,95.436,540.54,538.785,0.0
52294.0,STARLINK-3777,PAYLOAD,2022-07-20 14:00:01,15.08859802,0.0001405,53.2162,301.2067,79.1,13.7942,-0.0010085,-0.00016311,0.0,0 STARLINK-3777,1 52294U 22041AK  22201.58334491 -.00016311  00000-0 -10085-2 0  9995,2 52294  53.2162 301.2067 0001405  79.1000  13.7942 15.08859802 15232,6917.82,95.436,540.6569999999998,538.7130000000002,0.0
